[
    {
        "Altitude(m)": 605459.0654592137,
        "Argument of Periapsis(deg)": 0.0,
        "Eccentricity": 0.0,
        "Inclination(deg)": 60.0,
        "Latitude(deg)": 27.988333038052936,
        "Longitude(deg)": 77.79856442743855,
        "Mean Anomaly(deg)": 32.727299999999985,
        "RAAN(deg)": 160.0,
        "Satellite Name": "Test1 706",
        "Satellite Number": 706,
        "Semi-Major Axis(m)": 6980739.136638005,
        "Time(s)": 0
    },
    {
        "Altitude(m)": 605535.8569910749,
        "Argument of Periapsis(deg)": 0.00010418945913296404,
        "Eccentricity": 0.0,
        "Inclination(deg)": 60.0,
        "Latitude(deg)": 28.501462774700265,
        "Longitude(deg)": 78.15550946234096,
        "Mean Anomaly(deg)": 33.34740614546184,
        "RAAN(deg)": 159.99957995086024,
        "Satellite Name": "Test1 706",
        "Satellite Number": 706,
        "Semi-Major Axis(m)": 6980739.136638005,
        "Time(s)": 10
    }
]